H1 CPF 01  gfz 2022 09 13 00  7561 tandemx   
H2 1003001  6202 36605    2022 09 13 00 59 42 2022 09 18 00 00 42   120 1 1  0 0 0
H9
10 0 59835   3582.000000  0   -1926839.076  -5628130.216   3464755.838
10 0 59835   3702.000000  0   -1936481.503  -5087913.404   4211610.566
10 0 59835   3822.000000  0   -1902043.472  -4458978.256   4884323.429
10 0 59835   3942.000000  0   -1822689.115  -3753123.357   5471080.359
10 0 59835   4062.000000  0   -1698587.037  -2983492.451   5961592.453
10 0 59835   4182.000000  0   -1530925.492  -2164320.836   6347271.182
10 0 59835   4302.000000  0   -1321905.596  -1310667.380   6621372.311
10 0 59835   4422.000000  0   -1074713.853   -438134.396   6779108.422
10 0 59835   4542.000000  0    -793474.317    437419.088   6817726.473
10 0 59835   4662.000000  0    -483179.947   1300164.632   6736553.219
10 0 59835   4782.000000  0    -149603.743   2134590.317   6537006.584
10 0 59835   4902.000000  0     200808.456   2925779.490   6222572.173
10 0 59835   5022.000000  0     561061.268   3659677.692   5798746.076
10 0 59835   5142.000000  0     923747.266   4323345.279   5272944.371
10 0 59835   5262.000000  0    1281197.066   4905190.427   4654379.274
10 0 59835   5382.000000  0    1625638.983   5395178.721   3953902.559
10 0 59835   5502.000000  0    1949364.890   5785013.898   3183820.623
10 0 59835   5622.000000  0    2244900.887   6068289.426   2357680.006
10 0 59835   5742.000000  0    2505174.845   6240602.378   1490025.260
10 0 59835   5862.000000  0    2723679.601   6299627.126    596136.786
10 0 59835   5982.000000  0    2894625.094   6245146.013   -308245.725
10 0 59835   6102.000000  0    3013077.760   6079038.929  -1207208.211
10 0 59835   6222.000000  0    3075083.288   5805230.370  -2084950.431
10 0 59835   6342.000000  0    3077769.175   5429596.374  -2926070.726
10 0 59835   6462.000000  0    3019424.870   4959832.818  -3715842.080
10 0 59835   6582.000000  0    2899556.654   4405288.527  -4440471.669
10 0 59835   6702.000000  0    2718916.995   3776770.287  -5087339.206
10 0 59835   6822.000000  0    2479508.449   3086324.012  -5645210.632
10 0 59835   6942.000000  0    2184563.269   2346997.475  -6104424.638
10 0 59835   7062.000000  0    1838498.009   1572589.509  -6457049.002
10 0 59835   7182.000000  0    1446846.014    777392.060  -6697005.295
10 0 59835   7302.000000  0    1016169.069    -24070.512  -6820163.771
10 0 59835   7422.000000  0     553947.387   -817302.156  -6824407.384
10 0 59835   7542.000000  0      68451.493  -1588091.464  -6709662.529
10 0 59835   7662.000000  0    -431401.413  -2322758.539  -6477899.661
10 0 59835   7782.000000  0    -936206.890  -3008392.462  -6133105.031
10 0 59835   7902.000000  0   -1436245.750  -3633075.946  -5681218.964
10 0 59835   8022.000000  0   -1921666.325  -4186091.764  -5130043.858
10 0 59835   8142.000000  0   -2382675.326  -4658110.656  -4489121.965
10 0 59835   8262.000000  0   -2809734.119  -5041355.924  -3769580.988
10 0 59835   8382.000000  0   -3193755.385  -5329739.733  -2983949.662
10 0 59835   8502.000000  0   -3526296.292  -5518969.226  -2145946.387
10 0 59835   8622.000000  0   -3799744.465  -5606619.424  -1270242.780
10 0 59835   8742.000000  0   -4007491.362  -5592169.979   -372205.408
10 0 59835   8862.000000  0   -4144087.736  -5477003.830    532379.005
10 0 59835   8982.000000  0   -4205377.450  -5264367.415   1427588.753
10 0 59835   9102.000000  0   -4188605.849  -4959292.454   2297657.012
10 0 59835   9222.000000  0   -4092499.105  -4568481.029   3127258.420
10 0 59835   9342.000000  0   -3917313.542  -4100158.331   3901786.202
10 0 59835   9462.000000  0   -3664853.407  -3563896.369   4607615.049
10 0 59835   9582.000000  0   -3338456.354  -2970412.338   5232343.016
10 0 59835   9702.000000  0   -2942948.416  -2331348.782   5765007.653
10 0 59835   9822.000000  0   -2484569.478  -1659041.216   6196274.907
10 0 59835   9942.000000  0   -1970871.295   -966276.597   6518598.899
10 0 59835  10062.000000  0   -1410588.394   -266046.161   6726348.939
10 0 59835  10182.000000  0    -813486.165    428698.823   6815899.420
10 0 59835  10302.000000  0    -190190.966   1105284.983   6785689.095
10 0 59835  10422.000000  0     447998.764   1751547.682   6636247.121
10 0 59835  10542.000000  0    1089317.047   2356049.836   6370184.300
10 0 59835  10662.000000  0    1721746.598   2908284.098   5992149.519
10 0 59835  10782.000000  0    2333243.177   3398856.735   5508754.073
10 0 59835  10902.000000  0    2911965.907   3819651.436   4928462.904
10 0 59835  11022.000000  0    3446509.548   4163968.308   4261451.064
10 0 59835  11142.000000  0    3926130.979   4426634.266   3519429.780
10 0 59835  11262.000000  0    4340970.045   4604086.961   2715445.532
10 0 59835  11382.000000  0    4682258.038   4694424.747   1863647.283
10 0 59835  11502.000000  0    4942503.582   4697423.608    979034.511
10 0 59835  11622.000000  0    5115659.383   4614520.287     77187.003
10 0 59835  11742.000000  0    5197258.684   4448760.212   -826019.568
10 0 59835  11862.000000  0    5184519.021   4204712.379  -1714701.614
10 0 59835  11982.000000  0    5076413.175   3888354.228  -2573254.320
10 0 59835  12102.000000  0    4873704.773   3506929.136  -3386631.425
10 0 59835  12222.000000  0    4578947.323   3068781.434  -4140611.818
10 0 59835  12342.000000  0    4196447.530   2583172.743  -4822048.142
10 0 59835  12462.000000  0    3732195.022   2060083.380  -5419091.555
10 0 59835  12582.000000  0    3193760.834   1510005.431  -5921389.812
10 0 59835  12702.000000  0    2590166.479    943732.197  -6320256.851
10 0 59835  12822.000000  0    1931727.416    372147.780  -6608811.030
10 0 59835  12942.000000  0    1229875.709   -193978.413  -6782082.224
10 0 59835  13062.000000  0     496963.048   -744190.452  -6837090.123
10 0 59835  13182.000000  0    -253954.262  -1268534.630  -6772888.559
10 0 59835  13302.000000  0   -1009341.611  -1757734.049  -6590579.166
10 0 59835  13422.000000  0   -1755424.071  -2203348.863  -6293295.714
10 0 59835  13542.000000  0   -2478432.080  -2597920.044  -5886155.720
10 0 59835  13662.000000  0   -3164850.285  -2935093.435  -5376181.682
10 0 59835  13782.000000  0   -3801668.711  -3209724.379  -4772192.551
10 0 59835  13902.000000  0   -4376631.441  -3417959.842  -4084662.156
10 0 59835  14022.000000  0   -4878476.323  -3557295.235  -3325547.614
10 0 59835  14142.000000  0   -5297162.170  -3626605.573  -2508089.352
10 0 59835  14262.000000  0   -5624077.602  -3626149.346  -1646584.214
10 0 59835  14382.000000  0   -5852225.483  -3557544.079   -756135.825
10 0 59835  14502.000000  0   -5976378.722  -3423714.172    147613.261
10 0 59835  14622.000000  0   -5993202.987  -3228811.733   1048762.398
10 0 59835  14742.000000  0   -5901342.056  -2978112.012   1931442.213
10 0 59835  14862.000000  0   -5701461.377  -2677884.755   2780103.899
10 0 59835  14982.000000  0   -5396251.367  -2335246.822   3579800.531
10 0 59835  15102.000000  0   -4990390.066  -1957999.224   4316457.975
10 0 59835  15222.000000  0   -4490464.146  -1554451.229   4977125.921
10 0 59835  15342.000000  0   -3904854.171  -1133239.185   5550204.402
10 0 59835  15462.000000  0   -3243587.150   -703143.316   6025645.370
10 0 59835  15582.000000  0   -2518157.220   -272904.831   6395125.782
10 0 59835  15702.000000  0   -1741318.227    148951.418   6652187.165
10 0 59835  15822.000000  0    -926855.077    554283.751   6792341.296
10 0 59835  15942.000000  0     -89337.823    935489.201   6813143.635
10 0 59835  16062.000000  0     756138.689   1285645.235   6714233.009
10 0 59835  16182.000000  0    1594226.015   1598635.523   6497337.636
10 0 59835  16302.000000  0    2409599.942   1869257.024   6166246.269
10 0 59835  16422.000000  0    3187240.352   2093306.731   5726746.645
10 0 59835  16542.000000  0    3912710.559   2267647.567   5186530.294
10 0 59835  16662.000000  0    4572428.690   2390251.915   4555063.466
10 0 59835  16782.000000  0    5153927.461   2460223.040   3843427.985
10 0 59835  16902.000000  0    5646100.448   2477792.458   3064130.232
10 0 59835  17022.000000  0    6039421.408   2444291.954   2230879.515
10 0 59835  17142.000000  0    6326136.798   2362103.624   1358346.248
10 0 59835  17262.000000  0    6500426.135   2234586.584    461897.681
10 0 59835  17382.000000  0    6558523.598   2065982.896   -442680.984
10 0 59835  17502.000000  0    6498796.883   1861305.162  -1339474.206
10 0 59835  17622.000000  0    6321784.020   1626208.383  -2212722.644
10 0 59835  17742.000000  0    6030189.338   1366849.836  -3047107.593
10 0 59835  17862.000000  0    5628833.258   1089739.756  -3828025.026
10 0 59835  17982.000000  0    5124560.831    801587.709  -4541842.447
10 0 59835  18102.000000  0    4526111.652    509148.867  -5176133.678
10 0 59835  18222.000000  0    3843956.971    219073.398  -5719887.789
10 0 59835  18342.000000  0    3090107.451    -62237.263  -6163690.946
10 0 59835  18462.000000  0    2277894.653   -328764.840  -6499878.999
10 0 59835  18582.000000  0    1421732.564   -574997.142  -6722657.544
10 0 59835  18702.000000  0     536863.690   -796037.261  -6828192.664
10 0 59835  18822.000000  0    -360909.399   -987696.853  -6814669.601
10 0 59835  18942.000000  0   -1255499.460  -1146572.513  -6682319.584
10 0 59835  19062.000000  0   -2130816.032  -1270104.768  -6433417.101
10 0 59835  19182.000000  0   -2971048.651  -1356618.491  -6072244.132
10 0 59835  19302.000000  0   -3760945.844  -1405344.436  -5605024.352
10 0 59835  19422.000000  0   -4486090.884  -1416422.145  -5039828.175
10 0 59835  19542.000000  0   -5133167.808  -1390883.126  -4386444.510
10 0 59835  19662.000000  0   -5690211.625  -1330614.786  -3656222.344
10 0 59835  19782.000000  0   -6146839.412  -1238305.649  -2861882.958
10 0 59835  19902.000000  0   -6494455.672  -1117372.374  -2017303.787
10 0 59835  20022.000000  0   -6726426.370   -971870.011  -1137278.068
99
